[{"OBJECT_NAME":"SL-14 R/B","OBJECT_ID":"1986-006B","EPOCH":"2026-04-28T17:23:39.463584","MEAN_MOTION":14.86895501,"ECCENTRICITY":0.0077918,"INCLINATION":82.5292,"RA_OF_ASC_NODE":212.6503,"ARG_OF_PERICENTER":106.5876,"MEAN_ANOMALY":254.3917,"EPHEMERIS_TYPE":0,"CLASSIFICATION_TYPE":"U","NORAD_CAT_ID":16496,"ELEMENT_SET_NO":999,"REV_AT_EPOCH":15664,"BSTAR":7.6432e-5,"MEAN_MOTION_DOT":7.5e-6,"MEAN_MOTION_DDOT":0},{"OBJECT_NAME":"COSMOS 1743","OBJECT_ID":"1986-034A","EPOCH":"2026-04-28T18:42:48.888000","MEAN_MOTION":15.62914626,"ECCENTRICITY":0.0007419,"INCLINATION":82.5326,"RA_OF_ASC_NODE":21.0903,"ARG_OF_PERICENTER":97.5258,"MEAN_ANOMALY":262.6843,"EPHEMERIS_TYPE":0,"CLASSIFICATION_TYPE":"U","NORAD_CAT_ID":16719,"ELEMENT_SET_NO":999,"REV_AT_EPOCH":18806,"BSTAR":0.0004908,"MEAN_MOTION_DOT":0.0004458,"MEAN_MOTION_DDOT":0},{"OBJECT_NAME":"SL-14 R/B","OBJECT_ID":"1986-046B","EPOCH":"2026-04-28T20:25:50.929824","MEAN_MOTION":14.85637158,"ECCENTRICITY":0.0024538,"INCLINATION":82.4848,"RA_OF_ASC_NODE":32.7876,"ARG_OF_PERICENTER":63.8911,"MEAN_ANOMALY":296.4826,"EPHEMERIS_TYPE":0,"CLASSIFICATION_TYPE":"U","NORAD_CAT_ID":16792,"ELEMENT_SET_NO":999,"REV_AT_EPOCH":13385,"BSTAR":5.3073e-5,"MEAN_MOTION_DOT":4.87e-6,"MEAN_MOTION_DDOT":0},{"OBJECT_NAME":"SL-14 R/B","OBJECT_ID":"1986-055B","EPOCH":"2026-04-28T20:17:39.617088","MEAN_MOTION":14.85685363,"ECCENTRICITY":0.0019307,"INCLINATION":82.5191,"RA_OF_ASC_NODE":79.5143,"ARG_OF_PERICENTER":161.6134,"MEAN_ANOMALY":262.2501,"EPHEMERIS_TYPE":0,"CLASSIFICATION_TYPE":"U","NORAD_CAT_ID":16882,"ELEMENT_SET_NO":999,"REV_AT_EPOCH":12681,"BSTAR":5.3091e-5,"MEAN_MOTION_DOT":4.86e-6,"MEAN_MOTION_DDOT":0},{"OBJECT_NAME":"AJISAI (EGS)","OBJECT_ID":"1986-061A","EPOCH":"2026-04-28T19:59:01.093920","MEAN_MOTION":12.44516034,"ECCENTRICITY":0.0011433,"INCLINATION":50.0096,"RA_OF_ASC_NODE":299.1606,"ARG_OF_PERICENTER":55.523,"MEAN_ANOMALY":39.0543,"EPHEMERIS_TYPE":0,"CLASSIFICATION_TYPE":"U","NORAD_CAT_ID":16908,"ELEMENT_SET_NO":999,"REV_AT_EPOCH":47424,"BSTAR":6.9787e-5,"MEAN_MOTION_DOT":-8.8e-7,"MEAN_MOTION_DDOT":0},{"OBJECT_NAME":"SL-14 R/B","OBJECT_ID":"1987-024B","EPOCH":"2026-04-28T20:47:42.343584","MEAN_MOTION":14.86177955,"ECCENTRICITY":0.0019831,"INCLINATION":82.5302,"RA_OF_ASC_NODE":45.6,"ARG_OF_PERICENTER":94.1465,"MEAN_ANOMALY":266.2019,"EPHEMERIS_TYPE":0,"CLASSIFICATION_TYPE":"U","NORAD_CAT_ID":17567,"ELEMENT_SET_NO":999,"REV_AT_EPOCH":9558,"BSTAR":5.1022e-5,"MEAN_MOTION_DOT":4.74e-6,"MEAN_MOTION_DDOT":0},{"OBJECT_NAME":"COSMOS 1833","OBJECT_ID":"1987-027A","EPOCH":"2026-04-28T15:01:06.177216","MEAN_MOTION":14.13032996,"ECCENTRICITY":0.0022388,"INCLINATION":70.9162,"RA_OF_ASC_NODE":221.0512,"ARG_OF_PERICENTER":136.9564,"MEAN_ANOMALY":223.3314,"EPHEMERIS_TYPE":0,"CLASSIFICATION_TYPE":"U","NORAD_CAT_ID":17589,"ELEMENT_SET_NO":999,"REV_AT_EPOCH":1737,"BSTAR":-7.5198e-5,"MEAN_MOTION_DOT":-1.89e-6,"MEAN_MOTION_DDOT":0},{"OBJECT_NAME":"SL-16 R/B","OBJECT_ID":"1987-027B","EPOCH":"2026-04-28T15:59:03.493824","MEAN_MOTION":14.17172337,"ECCENTRICITY":0.0003792,"INCLINATION":71.0022,"RA_OF_ASC_NODE":171.1827,"ARG_OF_PERICENTER":19.9484,"MEAN_ANOMALY":340.1787,"EPHEMERIS_TYPE":0,"CLASSIFICATION_TYPE":"U","NORAD_CAT_ID":17590,"ELEMENT_SET_NO":999,"REV_AT_EPOCH":2242,"BSTAR":8.2508e-5,"MEAN_MOTION_DOT":1.18e-6,"MEAN_MOTION_DDOT":0},{"OBJECT_NAME":"SL-14 R/B","OBJECT_ID":"1987-038B","EPOCH":"2026-04-28T19:40:26.502816","MEAN_MOTION":14.85412794,"ECCENTRICITY":0.0019224,"INCLINATION":82.5008,"RA_OF_ASC_NODE":249.5692,"ARG_OF_PERICENTER":3.5703,"MEAN_ANOMALY":356.5646,"EPHEMERIS_TYPE":0,"CLASSIFICATION_TYPE":"U","NORAD_CAT_ID":17912,"ELEMENT_SET_NO":999,"REV_AT_EPOCH":8667,"BSTAR":4.8988e-5,"MEAN_MOTION_DOT":4.47e-6,"MEAN_MOTION_DDOT":0},{"OBJECT_NAME":"COSMOS 1844","OBJECT_ID":"1987-041A","EPOCH":"2026-04-28T19:40:02.143200","MEAN_MOTION":14.14559063,"ECCENTRICITY":0.0032821,"INCLINATION":70.898,"RA_OF_ASC_NODE":288.4383,"ARG_OF_PERICENTER":304.6625,"MEAN_ANOMALY":55.1404,"EPHEMERIS_TYPE":0,"CLASSIFICATION_TYPE":"U","NORAD_CAT_ID":17973,"ELEMENT_SET_NO":999,"REV_AT_EPOCH":1067,"BSTAR":-0.00012507,"MEAN_MOTION_DOT":-2.9e-6,"MEAN_MOTION_DDOT":0},{"OBJECT_NAME":"SL-14 R/B","OBJECT_ID":"1987-055B","EPOCH":"2026-04-28T15:40:33.982176","MEAN_MOTION":14.85671589,"ECCENTRICITY":0.001996,"INCLINATION":82.4966,"RA_OF_ASC_NODE":301.9324,"ARG_OF_PERICENTER":204.5949,"MEAN_ANOMALY":155.4317,"EPHEMERIS_TYPE":0,"CLASSIFICATION_TYPE":"U","NORAD_CAT_ID":18153,"ELEMENT_SET_NO":999,"REV_AT_EPOCH":7735,"BSTAR":5.4958e-5,"MEAN_MOTION_DOT":5.02e-6,"MEAN_MOTION_DDOT":0},{"OBJECT_NAME":"COSMOS 1867","OBJECT_ID":"1987-060A","EPOCH":"2026-04-28T09:24:41.455008","MEAN_MOTION":14.31510077,"ECCENTRICITY":0.0015462,"INCLINATION":65.0095,"RA_OF_ASC_NODE":167.5121,"ARG_OF_PERICENTER":281.079,"MEAN_ANOMALY":78.8556,"EPHEMERIS_TYPE":0,"CLASSIFICATION_TYPE":"U","NORAD_CAT_ID":18187,"ELEMENT_SET_NO":999,"REV_AT_EPOCH":2705,"BSTAR":2.7059e-5,"MEAN_MOTION_DOT":-2.8e-7,"MEAN_MOTION_DDOT":0},{"OBJECT_NAME":"SL-14 R/B","OBJECT_ID":"1988-001B","EPOCH":"2026-04-28T18:52:45.657984","MEAN_MOTION":14.85572563,"ECCENTRICITY":0.0019587,"INCLINATION":82.512,"RA_OF_ASC_NODE":148.251,"ARG_OF_PERICENTER":74.3485,"MEAN_ANOMALY":285.9891,"EPHEMERIS_TYPE":0,"CLASSIFICATION_TYPE":"U","NORAD_CAT_ID":18749,"ELEMENT_SET_NO":999,"REV_AT_EPOCH":4946,"BSTAR":4.3175e-5,"MEAN_MOTION_DOT":3.99e-6,"MEAN_MOTION_DDOT":0},{"OBJECT_NAME":"COSMOS 1933","OBJECT_ID":"1988-020A","EPOCH":"2026-04-28T16:23:27.845088","MEAN_MOTION":15.18414043,"ECCENTRICITY":0.0004714,"INCLINATION":82.5158,"RA_OF_ASC_NODE":201.4417,"ARG_OF_PERICENTER":44.8859,"MEAN_ANOMALY":315.2756,"EPHEMERIS_TYPE":0,"CLASSIFICATION_TYPE":"U","NORAD_CAT_ID":18958,"ELEMENT_SET_NO":999,"REV_AT_EPOCH":5781,"BSTAR":0.00016918,"MEAN_MOTION_DOT":3.511e-5,"MEAN_MOTION_DDOT":0},{"OBJECT_NAME":"SL-3 R/B","OBJECT_ID":"1988-032B","EPOCH":"2026-04-28T21:21:52.498944","MEAN_MOTION":15.20420641,"ECCENTRICITY":0.0027377,"INCLINATION":97.5233,"RA_OF_ASC_NODE":102.0044,"ARG_OF_PERICENTER":61.1731,"MEAN_ANOMALY":299.2248,"EPHEMERIS_TYPE":0,"CLASSIFICATION_TYPE":"U","NORAD_CAT_ID":19046,"ELEMENT_SET_NO":999,"REV_AT_EPOCH":5973,"BSTAR":0.00025299,"MEAN_MOTION_DOT":5.5e-5,"MEAN_MOTION_DDOT":0},{"OBJECT_NAME":"SL-16 R/B","OBJECT_ID":"1988-039B","EPOCH":"2026-04-28T20:49:33.219840","MEAN_MOTION":14.19624488,"ECCENTRICITY":0.0024056,"INCLINATION":71.015,"RA_OF_ASC_NODE":322.4473,"ARG_OF_PERICENTER":263.5515,"MEAN_ANOMALY":96.287,"EPHEMERIS_TYPE":0,"CLASSIFICATION_TYPE":"U","NORAD_CAT_ID":19120,"ELEMENT_SET_NO":999,"REV_AT_EPOCH":96550,"BSTAR":5.1724e-5,"MEAN_MOTION_DOT":6.1e-7,"MEAN_MOTION_DDOT":0},{"OBJECT_NAME":"COSMOS 1953","OBJECT_ID":"1988-050A","EPOCH":"2026-04-28T16:38:29.676192","MEAN_MOTION":15.29258593,"ECCENTRICITY":0.0009135,"INCLINATION":82.5045,"RA_OF_ASC_NODE":107.9125,"ARG_OF_PERICENTER":314.8438,"MEAN_ANOMALY":45.2059,"EPHEMERIS_TYPE":0,"CLASSIFICATION_TYPE":"U","NORAD_CAT_ID":19210,"ELEMENT_SET_NO":999,"REV_AT_EPOCH":4542,"BSTAR":0.0002672,"MEAN_MOTION_DOT":7.624e-5,"MEAN_MOTION_DDOT":0}]
