SL-14 R/B               
1 16496U 86006B   26118.72476231  .00000750  00000+0  76432-4 0  9993
2 16496  82.5292 212.6503 0077918 106.5876 254.3917 14.86895501156640
COSMOS 1743             
1 16719U 86034A   26118.77973250  .00044580  00000+0  49080-3 0  9997
2 16719  82.5326  21.0903 0007419  97.5258 262.6843 15.62914626188060
SL-14 R/B               
1 16792U 86046B   26118.85128391  .00000487  00000+0  53073-4 0  9994
2 16792  82.4848  32.7876 0024538  63.8911 296.4826 14.85637158133859
SL-14 R/B               
1 16882U 86055B   26118.84559742  .00000486  00000+0  53091-4 0  9990
2 16882  82.5191  79.5143 0019307 161.6134 262.2501 14.85685363126819
AJISAI (EGS)            
1 16908U 86061A   26118.83265155 -.00000088  00000+0  69787-4 0  9995
2 16908  50.0096 299.1606 0011433  55.5230  39.0543 12.44516034474246
SL-14 R/B               
1 17567U 87024B   26118.86646231  .00000474  00000+0  51022-4 0  9999
2 17567  82.5302  45.6000 0019831  94.1465 266.2019 14.86177955 95580
COSMOS 1833             
1 17589U 87027A   26118.62576594 -.00000189  00000+0 -75198-4 0  9999
2 17589  70.9162 221.0512 0022388 136.9564 223.3314 14.13032996 17371
SL-16 R/B               
1 17590U 87027B   26118.66601266  .00000118  00000+0  82508-4 0  9993
2 17590  71.0022 171.1827 0003792  19.9484 340.1787 14.17172337 22425
SL-14 R/B               
1 17912U 87038B   26118.81975119  .00000447  00000+0  48988-4 0  9990
2 17912  82.5008 249.5692 0019224   3.5703 356.5646 14.85412794 86675
COSMOS 1844             
1 17973U 87041A   26118.81946925 -.00000290  00000+0 -12507-3 0  9999
2 17973  70.8980 288.4383 0032821 304.6625  55.1404 14.14559063 10670
SL-14 R/B               
1 18153U 87055B   26118.65317109  .00000502  00000+0  54958-4 0  9994
2 18153  82.4966 301.9324 0019960 204.5949 155.4317 14.85671589 77357
COSMOS 1867             
1 18187U 87060A   26118.39214647 -.00000028  00000+0  27059-4 0  9997
2 18187  65.0095 167.5121 0015462 281.0790  78.8556 14.31510077 27052
SL-14 R/B               
1 18749U 88001B   26118.78663956  .00000399  00000+0  43175-4 0  9998
2 18749  82.5120 148.2510 0019587  74.3485 285.9891 14.85572563 49462
COSMOS 1933             
1 18958U 88020A   26118.68296117  .00003511  00000+0  16918-3 0  9994
2 18958  82.5158 201.4417 0004714  44.8859 315.2756 15.18414043 57816
SL-3 R/B                
1 19046U 88032B   26118.89019096  .00005500  00000+0  25299-3 0  9990
2 19046  97.5233 102.0044 0027377  61.1731 299.2248 15.20420641 59732
SL-16 R/B               
1 19120U 88039B   26118.86774560  .00000061  00000+0  51724-4 0  9991
2 19120  71.0150 322.4473 0024056 263.5515  96.2870 14.19624488965502
COSMOS 1953             
1 19210U 88050A   26118.69339903  .00007624  00000+0  26720-3 0  9992
2 19210  82.5045 107.9125 0009135 314.8438  45.2059 15.29258593 45422
